GPS BIIR-2  (PRN 13)    
1 24876U 97035A   26064.99563334  .00000005  00000+0  00000+0 0  9994
2 24876  55.9363 102.6088 0097990  56.2514 304.7521  2.00564004209882
GPS BIIR-5  (PRN 22)    
1 26407U 00040A   26065.82464189  .00000025  00000+0  00000+0 0  9999
2 26407  54.8750 219.2256 0122643 302.5332 230.2733  2.00568995187890
GPS BIIR-8  (PRN 16)    
1 27663U 03005A   26065.41226067  .00000020  00000+0  00000+0 0  9999
2 27663  54.9069 219.0498 0148732  52.7313 318.1949  2.00566200169257
GPS BIIR-11 (PRN 19)    
1 28190U 04009A   26066.58340325 -.00000016  00000+0  00000+0 0  9999
2 28190  54.9132 279.7911 0111094 169.1473 123.2267  2.00558069160903
GPS BIIR-13 (PRN 02)    
1 28474U 04045A   26065.38499287 -.00000095  00000+0  00000+0 0  9990
2 28474  55.1936 329.0394 0170811 312.9081 257.6882  2.00573556156360
GPS BIIRM-1 (PRN 17)    
1 28874U 05038A   26065.65681979 -.00000017  00000+0  00000+0 0  9992
2 28874  54.9613 277.3140 0128744 295.3788  71.8812  2.00572910149783
GPS BIIRM-2 (PRN 31)    
1 29486U 06042A   26065.38273686  .00000009  00000+0  00000+0 0  9990
2 29486  54.6979 155.4216 0106705  52.9105  13.4555  2.00575308142332
GPS BIIRM-3 (PRN 12)    
1 29601U 06052A   26065.70683819  .00000023  00000+0  00000+0 0  9995
2 29601  54.9563 218.0660 0087831  89.3999 271.5620  2.00551839141359
GPS BIIRM-4 (PRN 15)    
1 32260U 07047A   26065.01635843 -.00000015  00000+0  00000+0 0  9995
2 32260  54.0170  84.3168 0163613  85.9747 275.9459  2.00560687134746
GPS BIIRM-5 (PRN 29)    
1 32384U 07062A   26065.07949970 -.00000020  00000+0  00000+0 0  9990
2 32384  55.1135 278.2961 0032970 160.6738  12.9295  2.00553677133447
GPS BIIRM-6 (PRN 07)    
1 32711U 08012A   26066.43026692  .00000003  00000+0  00000+0 0  9998
2 32711  54.4825 153.9913 0207147 246.2396 111.6171  2.00569334131711
GPS BIIRM-8 (PRN 05)    
1 35752U 09043A   26065.92330101 -.00000082  00000+0  00000+0 0  9995
2 35752  56.1499  31.4687 0051754  80.7022 289.0531  2.00560347121311
GPS BIIF-1  (PRN 25)    
1 36585U 10022A   26065.75272985  .00000022  00000+0  00000+0 0  9998
2 36585  54.2884 212.6864 0127327  65.8922 297.4739  2.00557423115548
GPS BIIF-3  (PRN 24)    
1 38833U 12053A   26065.11266852  .00000008  00000+0  00000+0 0  9992
2 38833  53.5660 147.8234 0176954  64.7855 297.0886  2.00565873 97370
GPS BIIF-4  (PRN 27)    
1 39166U 13023A   26064.97752527 -.00000015  00000+0  00000+0 0  9991
2 39166  54.5849 273.1765 0141644  49.9392 311.3205  2.00564238 93815
GPS BIIF-5  (PRN 30)    
1 39533U 14008A   26065.47472293  .00000007  00000+0  00000+0 0  9998
2 39533  53.6378 153.5106 0082370 228.3710 130.9618  2.00553245 87628
GPS BIIF-6  (PRN 06)    
1 39741U 14026A   26065.75269462 -.00000100  00000+0  00000+0 0  9997
2 39741  56.5453 335.5082 0039837 324.6602  35.1138  2.00568575 86488
